{"type": "FeatureCollection", "features": [ {"type": "Feature", "properties": {"norad_id": 35480, "name": "IRIDIUM 33 DEB", "group": "iridium-33-debris", "lat": -77.34317629951298, "lon": 12.153418413220793, "alt_km": 743.905879384567, "timestamp": "2025-12-04T03:47:54.927693+00:00", "meta": {"OBJECT_NAME": "IRIDIUM 33 DEB", "OBJECT_ID": "1997-051QA", "EPOCH": "2025-12-01T21:29:27.496896", "MEAN_MOTION": 14.49686619, "ECCENTRICITY": 0.00155495, "INCLINATION": 86.3575, "RA_OF_ASC_NODE": 29.6125, "ARG_OF_PERICENTER": 136.7189, "MEAN_ANOMALY": 223.524, "EPHEMERIS_TYPE": 0, "CLASSIFICATION_TYPE": "U", "NORAD_CAT_ID": 35480, "ELEMENT_SET_NO": 999, "REV_AT_EPOCH": 86874, "BSTAR": 0.000651702, "MEAN_MOTION_DOT": 2.53e-05, "MEAN_MOTION_DDOT": 0}, "tle": {"line1": "1 35480U 97051QA  25335.89545714  .00002530  00000+0  65170-3 0  9994", "line2": "2 35480  86.3575  29.6125 0015549 136.7189 223.5240 14.49686619868745"}}, "geometry": {"type": "Point", "coordinates": [12.153418413220793, -77.34317629951298]}}, {"type": "Feature", "properties": {"norad_id": 35484, "name": "IRIDIUM 33 DEB", "group": "iridium-33-debris", "lat": 30.351969091704433, "lon": -1.10605798073142, "alt_km": 580.8759745360057, "timestamp": "2025-12-04T03:47:54.927704+00:00", "meta": {"OBJECT_NAME": "IRIDIUM 33 DEB", "OBJECT_ID": "1997-051QE", "EPOCH": "2025-12-01T19:32:14.692416", "MEAN_MOTION": 14.97587734, "ECCENTRICITY": 0.00218288, "INCLINATION": 86.3628, "RA_OF_ASC_NODE": 357.8533, "ARG_OF_PERICENTER": 162.6444, "MEAN_ANOMALY": 197.5538, "EPHEMERIS_TYPE": 0, "CLASSIFICATION_TYPE": "U", "NORAD_CAT_ID": 35484, "ELEMENT_SET_NO": 999, "REV_AT_EPOCH": 61852, "BSTAR": 0.0025030806, "MEAN_MOTION_DOT": 0.00029486, "MEAN_MOTION_DDOT": 0}, "tle": {"line1": "1 35484U 97051QE  25335.81405894  .00029486  00000+0  25031-2 0  9994", "line2": "2 35484  86.3628 357.8533 0021828 162.6444 197.5538 14.97587734618526"}}, "geometry": {"type": "Point", "coordinates": [-1.10605798073142, 30.351969091704433]}}, {"type": "Feature", "properties": {"norad_id": 35488, "name": "IRIDIUM 33 DEB", "group": "iridium-33-debris", "lat": -73.27771819039259, "lon": 137.19229023329467, "alt_km": 649.7033286160795, "timestamp": "2025-12-04T03:47:54.927714+00:00", "meta": {"OBJECT_NAME": "IRIDIUM 33 DEB", "OBJECT_ID": "1997-051QJ", "EPOCH": "2025-12-02T15:01:28.223904", "MEAN_MOTION": 14.82653192, "ECCENTRICITY": 0.0030768, "INCLINATION": 86.3233, "RA_OF_ASC_NODE": 305.5399, "ARG_OF_PERICENTER": 74.7602, "MEAN_ANOMALY": 285.7019, "EPHEMERIS_TYPE": 0, "CLASSIFICATION_TYPE": "U", "NORAD_CAT_ID": 35488, "ELEMENT_SET_NO": 999, "REV_AT_EPOCH": 88116, "BSTAR": 0.0017350437, "MEAN_MOTION_DOT": 0.00014134, "MEAN_MOTION_DDOT": 0}, "tle": {"line1": "1 35488U 97051QJ  25336.62602111  .00014134  00000+0  17350-2 0  9998", "line2": "2 35488  86.3233 305.5399 0030768  74.7602 285.7019 14.82653192881166"}}, "geometry": {"type": "Point", "coordinates": [137.19229023329467, -73.27771819039259]}}, {"type": "Feature", "properties": {"norad_id": 35616, "name": "IRIDIUM 33 DEB", "group": "iridium-33-debris", "lat": 86.1799830975353, "lon": 96.98342075126013, "alt_km": 618.9271415925105, "timestamp": "2025-12-04T03:47:54.927724+00:00", "meta": {"OBJECT_NAME": "IRIDIUM 33 DEB", "OBJECT_ID": "1997-051QN", "EPOCH": "2025-12-01T18:38:49.911648", "MEAN_MOTION": 14.81359224, "ECCENTRICITY": 0.00086191, "INCLINATION": 86.3548, "RA_OF_ASC_NODE": 350.7677, "ARG_OF_PERICENTER": 204.4295, "MEAN_ANOMALY": 155.6519, "EPHEMERIS_TYPE": 0, "CLASSIFICATION_TYPE": "U", "NORAD_CAT_ID": 35616, "ELEMENT_SET_NO": 999, "REV_AT_EPOCH": 87412, "BSTAR": 0.0016385024, "MEAN_MOTION_DOT": 0.00012841, "MEAN_MOTION_DDOT": 0}, "tle": {"line1": "1 35616U 97051QN  25335.77696657  .00012841  00000+0  16385-2 0  9994", "line2": "2 35616  86.3548 350.7677 0008619 204.4295 155.6519 14.81359224874125"}}, "geometry": {"type": "Point", "coordinates": [96.98342075126013, 86.1799830975353]}}, {"type": "Feature", "properties": {"norad_id": 35618, "name": "IRIDIUM 33 DEB", "group": "iridium-33-debris", "lat": 42.77320193219199, "lon": 0.6478557396085493, "alt_km": 693.1380260162514, "timestamp": "2025-12-04T03:47:54.927734+00:00", "meta": {"OBJECT_NAME": "IRIDIUM 33 DEB", "OBJECT_ID": "1997-051QQ", "EPOCH": "2025-11-27T19:27:47.606688", "MEAN_MOTION": 14.52216193, "ECCENTRICITY": 0.00308317, "INCLINATION": 86.3414, "RA_OF_ASC_NODE": 0.0275, "ARG_OF_PERICENTER": 70.0508, "MEAN_ANOMALY": 290.4015, "EPHEMERIS_TYPE": 0, "CLASSIFICATION_TYPE": "U", "NORAD_CAT_ID": 35618, "ELEMENT_SET_NO": 999, "REV_AT_EPOCH": 65177, "BSTAR": 0.00046503481, "MEAN_MOTION_DOT": 1.919e-05, "MEAN_MOTION_DDOT": 0}, "tle": {"line1": "1 35618U 97051QQ  25331.81096767  .00001919  00000+0  46503-3 0  9993", "line2": "2 35618  86.3414   0.0275 0030831  70.0508 290.4015 14.52216193651771"}}, "geometry": {"type": "Point", "coordinates": [0.6478557396085493, 42.77320193219199]}}, {"type": "Feature", "properties": {"norad_id": 35620, "name": "IRIDIUM 33 DEB", "group": "iridium-33-debris", "lat": 68.25367528220096, "lon": 31.959860314589417, "alt_km": 863.6171965214444, "timestamp": "2025-12-04T03:47:54.927745+00:00", "meta": {"OBJECT_NAME": "IRIDIUM 33 DEB", "OBJECT_ID": "1997-051QS", "EPOCH": "2025-12-02T22:52:25.088160", "MEAN_MOTION": 14.37465338, "ECCENTRICITY": 0.01453093, "INCLINATION": 86.388, "RA_OF_ASC_NODE": 221.5792, "ARG_OF_PERICENTER": 291.0856, "MEAN_ANOMALY": 67.4857, "EPHEMERIS_TYPE": 0, "CLASSIFICATION_TYPE": "U", "NORAD_CAT_ID": 35620, "ELEMENT_SET_NO": 999, "REV_AT_EPOCH": 59825, "BSTAR": 0.0076536129, "MEAN_MOTION_DOT": 0.00025951, "MEAN_MOTION_DDOT": 0}, "tle": {"line1": "1 35620U 97051QS  25336.95306815  .00025951  00000+0  76536-2 0  9994", "line2": "2 35620  86.3880 221.5792 0145309 291.0856  67.4857 14.37465338598252"}}, "geometry": {"type": "Point", "coordinates": [31.959860314589417, 68.25367528220096]}}, {"type": "Feature", "properties": {"norad_id": 35622, "name": "IRIDIUM 33 DEB", "group": "iridium-33-debris", "lat": -40.64935297855158, "lon": -95.44178475486464, "alt_km": 558.9392277958896, "timestamp": "2025-12-04T03:47:54.927755+00:00", "meta": {"OBJECT_NAME": "IRIDIUM 33 DEB", "OBJECT_ID": "1997-051QU", "EPOCH": "2025-12-03T06:17:03.782976", "MEAN_MOTION": 15.0277191, "ECCENTRICITY": 0.0010538, "INCLINATION": 86.2056, "RA_OF_ASC_NODE": 268.2648, "ARG_OF_PERICENTER": 2.3967, "MEAN_ANOMALY": 150.3951, "EPHEMERIS_TYPE": 0, "CLASSIFICATION_TYPE": "U", "NORAD_CAT_ID": 35622, "ELEMENT_SET_NO": 999, "REV_AT_EPOCH": 87217, "BSTAR": 0.0062141, "MEAN_MOTION_DOT": 0.00084066, "MEAN_MOTION_DDOT": 0}, "tle": {"line1": "1 35622U 97051QU  25337.26184934  .00084066  00000+0  62141-2 0  9996", "line2": "2 35622  86.2056 268.2648 0010538   2.3967 150.3951 15.02771910872179"}}, "geometry": {"type": "Point", "coordinates": [-95.44178475486464, -40.64935297855158]}}, {"type": "Feature", "properties": {"norad_id": 35628, "name": "IRIDIUM 33 DEB", "group": "iridium-33-debris", "lat": -11.227928489670564, "lon": -166.37277009199843, "alt_km": 682.1067927992735, "timestamp": "2025-12-04T03:47:54.927765+00:00", "meta": {"OBJECT_NAME": "IRIDIUM 33 DEB", "OBJECT_ID": "1997-051RA", "EPOCH": "2025-12-02T19:50:02.046048", "MEAN_MOTION": 14.67345428, "ECCENTRICITY": 0.00116325, "INCLINATION": 86.3582, "RA_OF_ASC_NODE": 13.4962, "ARG_OF_PERICENTER": 17.351, "MEAN_ANOMALY": 342.81, "EPHEMERIS_TYPE": 0, "CLASSIFICATION_TYPE": "U", "NORAD_CAT_ID": 35628, "ELEMENT_SET_NO": 999, "REV_AT_EPOCH": 86301, "BSTAR": 0.0016793576, "MEAN_MOTION_DOT": 9.517e-05, "MEAN_MOTION_DDOT": 0}, "tle": {"line1": "1 35628U 97051RA  25336.82641257  .00009517  00000+0  16794-2 0  9990", "line2": "2 35628  86.3582  13.4962 0011632  17.3510 342.8100 14.67345428863013"}}, "geometry": {"type": "Point", "coordinates": [-166.37277009199843, -11.227928489670564]}}, {"type": "Feature", "properties": {"norad_id": 35631, "name": "IRIDIUM 33 DEB", "group": "iridium-33-debris", "lat": -10.102729467412484, "lon": 24.02253105004085, "alt_km": 750.4046409222219, "timestamp": "2025-12-04T03:47:54.927775+00:00", "meta": {"OBJECT_NAME": "IRIDIUM 33 DEB", "OBJECT_ID": "1997-051RD", "EPOCH": "2025-12-03T09:41:09.223872", "MEAN_MOTION": 14.47269336, "ECCENTRICITY": 0.0018066, "INCLINATION": 86.3684, "RA_OF_ASC_NODE": 24.9956, "ARG_OF_PERICENTER": 146.4986, "MEAN_ANOMALY": 234.0079, "EPHEMERIS_TYPE": 0, "CLASSIFICATION_TYPE": "U", "NORAD_CAT_ID": 35631, "ELEMENT_SET_NO": 999, "REV_AT_EPOCH": 87062, "BSTAR": 0.00050638, "MEAN_MOTION_DOT": 1.875e-05, "MEAN_MOTION_DDOT": 0}, "tle": {"line1": "1 35631U 97051RD  25337.40357898  .00001875  00000+0  50638-3 0  9999", "line2": "2 35631  86.3684  24.9956 0018066 146.4986 234.0079 14.47269336870622"}}, "geometry": {"type": "Point", "coordinates": [24.02253105004085, -10.102729467412484]}}, {"type": "Feature", "properties": {"norad_id": 35680, "name": "IRIDIUM 33 DEB", "group": "iridium-33-debris", "lat": 59.32705096802759, "lon": 31.92174313484631, "alt_km": 859.1401837664553, "timestamp": "2025-12-04T03:47:54.927786+00:00", "meta": {"OBJECT_NAME": "IRIDIUM 33 DEB", "OBJECT_ID": "1997-051RJ", "EPOCH": "2025-12-01T22:00:09.279648", "MEAN_MOTION": 14.20616647, "ECCENTRICITY": 0.01501261, "INCLINATION": 86.103, "RA_OF_ASC_NODE": 26.3138, "ARG_OF_PERICENTER": 313.2693, "MEAN_ANOMALY": 168.1986, "EPHEMERIS_TYPE": 0, "CLASSIFICATION_TYPE": "U", "NORAD_CAT_ID": 35680, "ELEMENT_SET_NO": 999, "REV_AT_EPOCH": 60547, "BSTAR": 0.0036692718, "MEAN_MOTION_DOT": 8.864e-05, "MEAN_MOTION_DDOT": 0}, "tle": {"line1": "1 35680U 97051RJ  25335.91677407  .00008864  00000+0  36693-2 0  9997", "line2": "2 35680  86.1030  26.3138 0150126 313.2693 168.1986 14.20616647605475"}}, "geometry": {"type": "Point", "coordinates": [31.92174313484631, 59.32705096802759]}}]}